start=new Date('2023-01-17T00:00:00.000Z').valueOf();
sats=[{"ELEMENT_SET_NO":"999","MEAN_MOTION_DOT":"-0.00026923","TLE_LINE1":"1 53485U 22099W   23016.80904600 -.00026923  00000-0 -21007-2 0  9992","BSTAR":"-0.00210070000000","TIME_SYSTEM":"UTC","DECAY_DATE":null,"OBJECT_TYPE":"PAYLOAD","ECCENTRICITY":"0.00015200","REV_AT_EPOCH":"2376","CLASSIFICATION_TYPE":"U","MEAN_ANOMALY":"280.9689","EPOCH":"2023-01-16T19:25:01.574400","OBJECT_NAME":"STARLINK-4430","OBJECT_ID":"2022-099W","PERIAPSIS":"562.023","MEAN_MOTION":"15.01238515","NORAD_CAT_ID":"53485","SITE":"AFWTR","RCS_SIZE":"LARGE","EPHEMERIS_TYPE":"0","REF_FRAME":"TEME","CENTER_NAME":"EARTH","ARG_OF_PERICENTER":"79.1706","TLE_LINE2":"2 53485  97.6518 140.0667 0001520  79.1706 280.9689 15.01238515 23766","MEAN_MOTION_DDOT":"0.0000000000000","INCLINATION":"97.6518","MEAN_ELEMENT_THEORY":"SGP4","RA_OF_ASC_NODE":"140.0667","PERIOD":"95.921","SEMIMAJOR_AXIS":"6941.213","APOAPSIS":"564.133","GP_ID":"223254216","FILE":"3750956","COUNTRY_CODE":"US","LAUNCH_DATE":"2022-08-12"},{"BSTAR":"-0.00122780000000","OBJECT_TYPE":"PAYLOAD","DECAY_DATE":null,"TIME_SYSTEM":"UTC","ELEMENT_SET_NO":"999","TLE_LINE1":"1 53486U 22099X   23016.81274636 -.00015789  00000-0 -12278-2 0  9991","MEAN_MOTION_DOT":"-0.00015789","EPOCH":"2023-01-16T19:30:21.285504","MEAN_ANOMALY":"336.4449","OBJECT_NAME":"STARLINK-4431","OBJECT_ID":"2022-099X","PERIAPSIS":"562.174","REV_AT_EPOCH":"2376","ECCENTRICITY":"0.00012570","CLASSIFICATION_TYPE":"U","EPHEMERIS_TYPE":"0","REF_FRAME":"TEME","CENTER_NAME":"EARTH","NORAD_CAT_ID":"53486","MEAN_MOTION":"15.01248605","RCS_SIZE":"LARGE","SITE":"AFWTR","SEMIMAJOR_AXIS":"6941.182","APOAPSIS":"563.919","LAUNCH_DATE":"2022-08-12","FILE":"3750956","GP_ID":"223255422","COUNTRY_CODE":"US","INCLINATION":"97.6578","TLE_LINE2":"2 53486  97.6578 140.0732 0001257  23.6832 336.4449 15.01248605 23769","MEAN_MOTION_DDOT":"0.0000000000000","ARG_OF_PERICENTER":"23.6832","PERIOD":"95.920","MEAN_ELEMENT_THEORY":"SGP4","RA_OF_ASC_NODE":"140.0732"},{"TLE_LINE1":"1 53487U 22099Y   23016.80533904 -.00017573  00000-0 -13673-2 0  9990","MEAN_MOTION_DOT":"-0.00017573","ELEMENT_SET_NO":"999","BSTAR":"-0.00136730000000","OBJECT_TYPE":"PAYLOAD","DECAY_DATE":null,"TIME_SYSTEM":"UTC","ECCENTRICITY":"0.00016940","REV_AT_EPOCH":"2376","CLASSIFICATION_TYPE":"U","OBJECT_NAME":"STARLINK-4432","MEAN_ANOMALY":"351.4273","EPOCH":"2023-01-16T19:19:41.293056","PERIAPSIS":"561.867","OBJECT_ID":"2022-099Y","NORAD_CAT_ID":"53487","MEAN_MOTION":"15.01249964","RCS_SIZE":"LARGE","SITE":"AFWTR","EPHEMERIS_TYPE":"0","CENTER_NAME":"EARTH","REF_FRAME":"TEME","MEAN_MOTION_DDOT":"0.0000000000000","TLE_LINE2":"2 53487  97.6555 140.0684 0001694   8.6980 351.4273 15.01249964 23764","ARG_OF_PERICENTER":"8.6980","INCLINATION":"97.6555","PERIOD":"95.920","RA_OF_ASC_NODE":"140.0684","MEAN_ELEMENT_THEORY":"SGP4","APOAPSIS":"564.219","SEMIMAJOR_AXIS":"6941.178","LAUNCH_DATE":"2022-08-12","COUNTRY_CODE":"US","FILE":"3750956","GP_ID":"223255185"},{"TIME_SYSTEM":"UTC","DECAY_DATE":null,"OBJECT_TYPE":"PAYLOAD","BSTAR":"-0.00002422700000","ELEMENT_SET_NO":"999","MEAN_MOTION_DOT":"-0.00000370","TLE_LINE1":"1 53488U 22099Z   23016.81089718 -.00000370  00000-0 -24227-4 0  9997","PERIAPSIS":"562.757","OBJECT_ID":"2022-099Z","MEAN_ANOMALY":"349.7042","EPOCH":"2023-01-16T19:27:41.516352","OBJECT_NAME":"STARLINK-4421","CLASSIFICATION_TYPE":"U","ECCENTRICITY":"0.00003650","REV_AT_EPOCH":"2376","REF_FRAME":"TEME","CENTER_NAME":"EARTH","EPHEMERIS_TYPE":"0","SITE":"AFWTR","RCS_SIZE":"LARGE","MEAN_MOTION":"15.01260368","NORAD_CAT_ID":"53488","FILE":"3750956","GP_ID":"223254464","COUNTRY_CODE":"US","LAUNCH_DATE":"2022-08-12","SEMIMAJOR_AXIS":"6941.146","APOAPSIS":"563.264","MEAN_ELEMENT_THEORY":"SGP4","RA_OF_ASC_NODE":"140.0684","PERIOD":"95.919","TLE_LINE2":"2 53488  97.6529 140.0684 0000365  10.4190 349.7042 15.01260368 23769","INCLINATION":"97.6529","MEAN_MOTION_DDOT":"0.0000000000000","ARG_OF_PERICENTER":"10.4190"},{"TLE_LINE1":"1 53489U 22099AA  23016.80350000  .00005060  00000-0  39827-3 0  9992","MEAN_MOTION_DOT":"0.00005060","ELEMENT_SET_NO":"999","OBJECT_TYPE":"PAYLOAD","DECAY_DATE":null,"TIME_SYSTEM":"UTC","BSTAR":"0.00039827000000","CLASSIFICATION_TYPE":"U","ECCENTRICITY":"0.00023930","REV_AT_EPOCH":"2376","PERIAPSIS":"561.348","OBJECT_ID":"2022-099AA","OBJECT_NAME":"STARLINK-4392","EPOCH":"2023-01-16T19:17:02.400000","MEAN_ANOMALY":"330.4090","RCS_SIZE":"LARGE","SITE":"AFWTR","NORAD_CAT_ID":"53489","MEAN_MOTION":"15.01260801","CENTER_NAME":"EARTH","REF_FRAME":"TEME","EPHEMERIS_TYPE":"0","PERIOD":"95.919","RA_OF_ASC_NODE":"140.0638","MEAN_ELEMENT_THEORY":"SGP4","TLE_LINE2":"2 53489  97.6507 140.0638 0002393  29.7270 330.4090 15.01260801 23762","MEAN_MOTION_DDOT":"0.0000000000000","INCLINATION":"97.6507","ARG_OF_PERICENTER":"29.7270","LAUNCH_DATE":"2022-08-12","COUNTRY_CODE":"US","GP_ID":"223254706","FILE":"3750956","APOAPSIS":"564.670","SEMIMAJOR_AXIS":"6941.144"},{"LAUNCH_DATE":"2022-08-12","COUNTRY_CODE":"US","FILE":"3750956","GP_ID":"223254944","APOAPSIS":"564.020","SEMIMAJOR_AXIS":"6941.199","PERIOD":"95.921","RA_OF_ASC_NODE":"140.0651","MEAN_ELEMENT_THEORY":"SGP4","ARG_OF_PERICENTER":"27.2996","TLE_LINE2":"2 53490  97.6535 140.0651 0001376  27.2996 332.8300 15.01242943 23765","MEAN_MOTION_DDOT":"0.0000000000000","INCLINATION":"97.6535","CENTER_NAME":"EARTH","REF_FRAME":"TEME","EPHEMERIS_TYPE":"0","RCS_SIZE":"LARGE","SITE":"AFWTR","NORAD_CAT_ID":"53490","MEAN_MOTION":"15.01242943","PERIAPSIS":"562.109","OBJECT_ID":"2022-099AB","OBJECT_NAME":"STARLINK-4387","MEAN_ANOMALY":"332.8300","EPOCH":"2023-01-16T19:22:21.533952","CLASSIFICATION_TYPE":"U","REV_AT_EPOCH":"2376","ECCENTRICITY":"0.00013760","DECAY_DATE":null,"OBJECT_TYPE":"PAYLOAD","TIME_SYSTEM":"UTC","BSTAR":"-0.00182220000000","MEAN_MOTION_DOT":"-0.00023376","TLE_LINE1":"1 53490U 22099AB  23016.80719368 -.00023376  00000-0 -18222-2 0  9997","ELEMENT_SET_NO":"999"},{"SEMIMAJOR_AXIS":"6941.080","APOAPSIS":"564.665","LAUNCH_DATE":"2022-08-12","GP_ID":"223255664","FILE":"3750956","COUNTRY_CODE":"US","MEAN_MOTION_DDOT":"0.0000000000000","TLE_LINE2":"2 53491  97.6510 140.0588 0002478 320.8555  39.2490 15.01281650 23761","ARG_OF_PERICENTER":"320.8555","INCLINATION":"97.6510","PERIOD":"95.918","MEAN_ELEMENT_THEORY":"SGP4","RA_OF_ASC_NODE":"140.0588","EPHEMERIS_TYPE":"0","REF_FRAME":"TEME","CENTER_NAME":"EARTH","NORAD_CAT_ID":"53491","MEAN_MOTION":"15.01281650","RCS_SIZE":"LARGE","SITE":"AFWTR","EPOCH":"2023-01-16T19:11:40.900416","MEAN_ANOMALY":"39.2490","OBJECT_NAME":"STARLINK-4450","PERIAPSIS":"561.225","OBJECT_ID":"2022-099AC","ECCENTRICITY":"0.00024780","REV_AT_EPOCH":"2376","CLASSIFICATION_TYPE":"U","BSTAR":"0.00104000000000","DECAY_DATE":null,"OBJECT_TYPE":"PAYLOAD","TIME_SYSTEM":"UTC","ELEMENT_SET_NO":"999","TLE_LINE1":"1 53491U 22099AC  23016.79977894  .00013332  00000-0  10400-2 0  9995","MEAN_MOTION_DOT":"0.00013332"},{"BSTAR":"-0.00128820000000","DECAY_DATE":null,"OBJECT_TYPE":"PAYLOAD","TIME_SYSTEM":"UTC","TLE_LINE1":"1 53492U 22099AD  23016.80374245 -.00016557  00000-0 -12882-2 0  9999","MEAN_MOTION_DOT":"-0.00016557","ELEMENT_SET_NO":"999","OBJECT_NAME":"STARLINK-4451","EPOCH":"2023-01-16T19:17:23.347680","MEAN_ANOMALY":"333.0101","OBJECT_ID":"2022-099AD","PERIAPSIS":"561.835","REV_AT_EPOCH":"2376","ECCENTRICITY":"0.00017880","CLASSIFICATION_TYPE":"U","EPHEMERIS_TYPE":"0","CENTER_NAME":"EARTH","REF_FRAME":"TEME","NORAD_CAT_ID":"53492","MEAN_MOTION":"15.01239011","RCS_SIZE":"LARGE","SITE":"AFWTR","APOAPSIS":"564.318","SEMIMAJOR_AXIS":"6941.212","LAUNCH_DATE":"2022-08-12","COUNTRY_CODE":"US","FILE":"3750956","GP_ID":"223253975","TLE_LINE2":"2 53492  97.6524 140.0633 0001788  27.1217 333.0101 15.01239011 23761","MEAN_MOTION_DDOT":"0.0000000000000","ARG_OF_PERICENTER":"27.1217","INCLINATION":"97.6524","PERIOD":"95.921","RA_OF_ASC_NODE":"140.0633","MEAN_ELEMENT_THEORY":"SGP4"},{"OBJECT_ID":"2022-099AE","PERIAPSIS":"562.186","MEAN_ANOMALY":"311.1017","EPOCH":"2023-01-16T19:06:43.133184","OBJECT_NAME":"STARLINK-4361","CLASSIFICATION_TYPE":"U","REV_AT_EPOCH":"2376","ECCENTRICITY":"0.00012890","TIME_SYSTEM":"UTC","OBJECT_TYPE":"PAYLOAD","DECAY_DATE":null,"BSTAR":"-0.00122480000000","ELEMENT_SET_NO":"999","TLE_LINE1":"1 53493U 22099AE  23016.79633256 -.00015746  00000-0 -12248-2 0  9993","MEAN_MOTION_DOT":"-0.00015746","FILE":"3750956","GP_ID":"223254217","COUNTRY_CODE":"US","LAUNCH_DATE":"2022-08-12","SEMIMAJOR_AXIS":"6941.215","APOAPSIS":"563.975","MEAN_ELEMENT_THEORY":"SGP4","RA_OF_ASC_NODE":"140.0509","PERIOD":"95.921","TLE_LINE2":"2 53493  97.6513 140.0509 0001289  49.0319 311.1017 15.01237815 23767","MEAN_MOTION_DDOT":"0.0000000000000","INCLINATION":"97.6513","ARG_OF_PERICENTER":"49.0319","REF_FRAME":"TEME","CENTER_NAME":"EARTH","EPHEMERIS_TYPE":"0","SITE":"AFWTR","RCS_SIZE":"LARGE","MEAN_MOTION":"15.01237815","NORAD_CAT_ID":"53493"},{"MEAN_MOTION_DOT":"-0.00034260","TLE_LINE1":"1 53494U 22099AF  23016.80163795 -.00034260  00000-0 -26771-2 0  9990","ELEMENT_SET_NO":"999","TIME_SYSTEM":"UTC","DECAY_DATE":null,"OBJECT_TYPE":"PAYLOAD","BSTAR":"-0.00267710000000","CLASSIFICATION_TYPE":"U","ECCENTRICITY":"0.00014850","REV_AT_EPOCH":"2376","PERIAPSIS":"562.041","OBJECT_ID":"2022-099AF","OBJECT_NAME":"STARLINK-4340","MEAN_ANOMALY":"311.6398","EPOCH":"2023-01-16T19:14:21.518880","SITE":"AFWTR","RCS_SIZE":"LARGE","MEAN_MOTION":"15.01240426","NORAD_CAT_ID":"53494","CENTER_NAME":"EARTH","REF_FRAME":"TEME","EPHEMERIS_TYPE":"0","RA_OF_ASC_NODE":"140.0561","MEAN_ELEMENT_THEORY":"SGP4","PERIOD":"95.921","TLE_LINE2":"2 53494  97.6514 140.0561 0001485  48.4953 311.6398 15.01240426 23761","MEAN_MOTION_DDOT":"0.0000000000000","ARG_OF_PERICENTER":"48.4953","INCLINATION":"97.6514","COUNTRY_CODE":"US","GP_ID":"223255423","FILE":"3750956","LAUNCH_DATE":"2022-08-12","APOAPSIS":"564.103","SEMIMAJOR_AXIS":"6941.207"}];
